OBJECT C                
1 57582U 23117C   24210.15841525  .00007039  00000+0  36161-3 0  9999
2 57582  97.4842 281.6747 0011720 147.2337 212.9625 15.16740812 53398
